[{"OBJECT_NAME":"STARLINK-3302","OBJECT_ID":"2022-001AR","EPOCH":"2026-03-09T14:38:07.368000","MEAN_MOTION":15.08837644,"ECCENTRICITY":0.0001456,"INCLINATION":53.2182,"RA_OF_ASC_NODE":179.482,"ARG_OF_PERICENTER":96.2762,"MEAN_ANOMALY":263.8396,"EPHEMERIS_TYPE":0,"CLASSIFICATION_TYPE":"U","NORAD_CAT_ID":50842,"ELEMENT_SET_NO":999,"REV_AT_EPOCH":23024,"BSTAR":1.4976e-5,"MEAN_MOTION_DOT":-5.0e-7,"MEAN_MOTION_DDOT":0},{"OBJECT_NAME":"DISKSAT B","OBJECT_ID":"2025-305B","EPOCH":"2026-03-09T19:33:34.074144","MEAN_MOTION":15.07484556,"ECCENTRICITY":0.00037827,"INCLINATION":45.0018,"RA_OF_ASC_NODE":250.2098,"ARG_OF_PERICENTER":311.4052,"MEAN_ANOMALY":48.6498,"EPHEMERIS_TYPE":0,"CLASSIFICATION_TYPE":"U","NORAD_CAT_ID":67220,"ELEMENT_SET_NO":999,"REV_AT_EPOCH":1231,"BSTAR":0.00082400752,"MEAN_MOTION_DOT":0.00012481,"MEAN_MOTION_DDOT":0}]
